{"type": "FeatureCollection", "features": [ {"type": "Feature", "properties": {"norad_id": 66829, "name": "STARLINK-36084", "group": "last-30-days", "lat": 59.14048167967543, "lon": -48.14546414927205, "alt_km": 405.1673546661468, "timestamp": "2025-12-23T07:45:08.116866+00:00", "meta": {"OBJECT_NAME": "STARLINK-36084", "OBJECT_ID": "2025-280J", "EPOCH": "2025-12-22T22:00:03.000096", "MEAN_MOTION": 15.52439681, "ECCENTRICITY": 0.00033179, "INCLINATION": 69.9998, "RA_OF_ASC_NODE": 170.5253, "ARG_OF_PERICENTER": 274.8735, "MEAN_ANOMALY": 88.9315, "EPHEMERIS_TYPE": 0, "CLASSIFICATION_TYPE": "U", "NORAD_CAT_ID": 66829, "ELEMENT_SET_NO": 999, "REV_AT_EPOCH": 437, "BSTAR": 0.0016627204, "MEAN_MOTION_DOT": 0.00103168, "MEAN_MOTION_DDOT": 0}, "tle": {"line1": "1 66829U 25280J   25356.91670139  .00103168  00000+0  16627-2 0  9997", "line2": "2 66829  69.9998 170.5253 0003317 274.8735  88.9315 15.52439681  4378"}}, "geometry": {"type": "Point", "coordinates": [-48.14546414927205, 59.14048167967543]}}, {"type": "Feature", "properties": {"norad_id": 66830, "name": "STARLINK-35881", "group": "last-30-days", "lat": 56.207136830242675, "lon": -43.564452678764205, "alt_km": 405.42162481017385, "timestamp": "2025-12-23T07:45:08.116878+00:00", "meta": {"OBJECT_NAME": "STARLINK-35881", "OBJECT_ID": "2025-280K", "EPOCH": "2025-12-22T22:00:03.000096", "MEAN_MOTION": 15.52445073, "ECCENTRICITY": 0.00033037, "INCLINATION": 70, "RA_OF_ASC_NODE": 170.5199, "ARG_OF_PERICENTER": 275.2655, "MEAN_ANOMALY": 92.3419, "EPHEMERIS_TYPE": 0, "CLASSIFICATION_TYPE": "U", "NORAD_CAT_ID": 66830, "ELEMENT_SET_NO": 999, "REV_AT_EPOCH": 453, "BSTAR": 0.0018531, "MEAN_MOTION_DOT": 0.00115197, "MEAN_MOTION_DDOT": 0}, "tle": {"line1": "1 66830U 25280K   25356.91670139  .00115197  00000+0  18531-2 0  9990", "line2": "2 66830  70.0000 170.5199 0003303 275.2655  92.3419 15.52445073  4531"}}, "geometry": {"type": "Point", "coordinates": [-43.564452678764205, 56.207136830242675]}}, {"type": "Feature", "properties": {"norad_id": 66831, "name": "STARLINK-35788", "group": "last-30-days", "lat": 54.67492040507512, "lon": -41.52045747891442, "alt_km": 405.6719657354852, "timestamp": "2025-12-23T07:45:08.116888+00:00", "meta": {"OBJECT_NAME": "STARLINK-35788", "OBJECT_ID": "2025-280L", "EPOCH": "2025-12-22T22:00:03.000096", "MEAN_MOTION": 15.52515629, "ECCENTRICITY": 0.000329, "INCLINATION": 69.9997, "RA_OF_ASC_NODE": 170.5195, "ARG_OF_PERICENTER": 277.7219, "MEAN_ANOMALY": 91.7688, "EPHEMERIS_TYPE": 0, "CLASSIFICATION_TYPE": "U", "NORAD_CAT_ID": 66831, "ELEMENT_SET_NO": 999, "REV_AT_EPOCH": 453, "BSTAR": -3.1716479e-05, "MEAN_MOTION_DOT": -2.118e-05, "MEAN_MOTION_DDOT": 0}, "tle": {"line1": "1 66831U 25280L   25356.91670139 -.00002118  00000+0 -31716-4 0  9993", "line2": "2 66831  69.9997 170.5195 0003290 277.7219  91.7688 15.52515629  4534"}}, "geometry": {"type": "Point", "coordinates": [-41.52045747891442, 54.67492040507512]}}, {"type": "Feature", "properties": {"norad_id": 66832, "name": "STARLINK-35768", "group": "last-30-days", "lat": 53.1114580416025, "lon": -39.62906831852305, "alt_km": 405.72524423474624, "timestamp": "2025-12-23T07:45:08.116898+00:00", "meta": {"OBJECT_NAME": "STARLINK-35768", "OBJECT_ID": "2025-280M", "EPOCH": "2025-12-22T22:00:03.000096", "MEAN_MOTION": 15.52523395, "ECCENTRICITY": 0.00032242, "INCLINATION": 70, "RA_OF_ASC_NODE": 170.5163, "ARG_OF_PERICENTER": 272.3422, "MEAN_ANOMALY": 99.0684, "EPHEMERIS_TYPE": 0, "CLASSIFICATION_TYPE": "U", "NORAD_CAT_ID": 66832, "ELEMENT_SET_NO": 999, "REV_AT_EPOCH": 453, "BSTAR": -0.00029232588, "MEAN_MOTION_DOT": -0.00018113, "MEAN_MOTION_DDOT": 0}, "tle": {"line1": "1 66832U 25280M   25356.91670139 -.00018113  00000+0 -29233-3 0  9996", "line2": "2 66832  70.0000 170.5163 0003224 272.3422  99.0684 15.52523395  4538"}}, "geometry": {"type": "Point", "coordinates": [-39.62906831852305, 53.1114580416025]}}, {"type": "Feature", "properties": {"norad_id": 66833, "name": "STARLINK-35858", "group": "last-30-days", "lat": 51.526469258997096, "lon": -37.87852212307094, "alt_km": 406.02346921544904, "timestamp": "2025-12-23T07:45:08.116907+00:00", "meta": {"OBJECT_NAME": "STARLINK-35858", "OBJECT_ID": "2025-280N", "EPOCH": "2025-12-22T22:00:03.000096", "MEAN_MOTION": 15.52510371, "ECCENTRICITY": 0.00033436, "INCLINATION": 69.9998, "RA_OF_ASC_NODE": 170.514, "ARG_OF_PERICENTER": 276.586, "MEAN_ANOMALY": 96.7351, "EPHEMERIS_TYPE": 0, "CLASSIFICATION_TYPE": "U", "NORAD_CAT_ID": 66833, "ELEMENT_SET_NO": 999, "REV_AT_EPOCH": 453, "BSTAR": 0.00019297408, "MEAN_MOTION_DOT": 0.00011718, "MEAN_MOTION_DDOT": 0}, "tle": {"line1": "1 66833U 25280N   25356.91670139  .00011718  00000+0  19297-3 0  9998", "line2": "2 66833  69.9998 170.5140 0003343 276.5860  96.7351 15.52510371  4536"}}, "geometry": {"type": "Point", "coordinates": [-37.87852212307094, 51.526469258997096]}}, {"type": "Feature", "properties": {"norad_id": 66834, "name": "STARLINK-35840", "group": "last-30-days", "lat": 49.91468879676895, "lon": -36.24438720788123, "alt_km": 406.20282673383826, "timestamp": "2025-12-23T07:45:08.116922+00:00", "meta": {"OBJECT_NAME": "STARLINK-35840", "OBJECT_ID": "2025-280P", "EPOCH": "2025-12-22T22:00:03.000096", "MEAN_MOTION": 15.52512695, "ECCENTRICITY": 0.00034834, "INCLINATION": 70, "RA_OF_ASC_NODE": 170.5111, "ARG_OF_PERICENTER": 272.0575, "MEAN_ANOMALY": 103.1819, "EPHEMERIS_TYPE": 0, "CLASSIFICATION_TYPE": "U", "NORAD_CAT_ID": 66834, "ELEMENT_SET_NO": 999, "REV_AT_EPOCH": 453, "BSTAR": 8.1045741e-05, "MEAN_MOTION_DOT": 4.82e-05, "MEAN_MOTION_DDOT": 0}, "tle": {"line1": "1 66834U 25280P   25356.91670139  .00004820  00000+0  81046-4 0  9997", "line2": "2 66834  70.0000 170.5111 0003483 272.0575 103.1819 15.52512695  4534"}}, "geometry": {"type": "Point", "coordinates": [-36.24438720788123, 49.91468879676895]}}, {"type": "Feature", "properties": {"norad_id": 66835, "name": "STARLINK-35890", "group": "last-30-days", "lat": 48.279276249536004, "lon": -34.71442326709498, "alt_km": 406.38441462713763, "timestamp": "2025-12-23T07:45:08.116934+00:00", "meta": {"OBJECT_NAME": "STARLINK-35890", "OBJECT_ID": "2025-280Q", "EPOCH": "2025-12-22T22:00:03.000096", "MEAN_MOTION": 15.5251054, "ECCENTRICITY": 0.00033528, "INCLINATION": 70.0001, "RA_OF_ASC_NODE": 170.5089, "ARG_OF_PERICENTER": 275.401, "MEAN_ANOMALY": 101.7518, "EPHEMERIS_TYPE": 0, "CLASSIFICATION_TYPE": "U", "NORAD_CAT_ID": 66835, "ELEMENT_SET_NO": 999, "REV_AT_EPOCH": 453, "BSTAR": 0.00017831374, "MEAN_MOTION_DOT": 0.00010814, "MEAN_MOTION_DDOT": 0}, "tle": {"line1": "1 66835U 25280Q   25356.91670139  .00010814  00000+0  17831-3 0  9998", "line2": "2 66835  70.0001 170.5089 0003352 275.4010 101.7518 15.52510540  4533"}}, "geometry": {"type": "Point", "coordinates": [-34.71442326709498, 48.279276249536004]}}, {"type": "Feature", "properties": {"norad_id": 66836, "name": "STARLINK-35838", "group": "last-30-days", "lat": 46.622301732881915, "lon": -33.27833532102187, "alt_km": 406.5446031240872, "timestamp": "2025-12-23T07:45:08.116944+00:00", "meta": {"OBJECT_NAME": "STARLINK-35838", "OBJECT_ID": "2025-280R", "EPOCH": "2025-12-22T22:00:03.000096", "MEAN_MOTION": 15.52513866, "ECCENTRICITY": 0.00032608, "INCLINATION": 70.0001, "RA_OF_ASC_NODE": 170.5065, "ARG_OF_PERICENTER": 275.696, "MEAN_ANOMALY": 103.3751, "EPHEMERIS_TYPE": 0, "CLASSIFICATION_TYPE": "U", "NORAD_CAT_ID": 66836, "ELEMENT_SET_NO": 999, "REV_AT_EPOCH": 453, "BSTAR": 5.3359462e-05, "MEAN_MOTION_DOT": 3.116e-05, "MEAN_MOTION_DDOT": 0}, "tle": {"line1": "1 66836U 25280R   25356.91670139  .00003116  00000+0  53359-4 0  9992", "line2": "2 66836  70.0001 170.5065 0003260 275.6960 103.3751 15.52513866  4533"}}, "geometry": {"type": "Point", "coordinates": [-33.27833532102187, 46.622301732881915]}}, {"type": "Feature", "properties": {"norad_id": 66837, "name": "STARLINK-35729", "group": "last-30-days", "lat": 44.95177692672349, "lon": -31.93055374554974, "alt_km": 406.57510089246716, "timestamp": "2025-12-23T07:45:08.116954+00:00", "meta": {"OBJECT_NAME": "STARLINK-35729", "OBJECT_ID": "2025-280S", "EPOCH": "2025-12-22T22:00:03.000096", "MEAN_MOTION": 15.5251692, "ECCENTRICITY": 0.00032148, "INCLINATION": 70.0002, "RA_OF_ASC_NODE": 170.5042, "ARG_OF_PERICENTER": 269.2875, "MEAN_ANOMALY": 111.7016, "EPHEMERIS_TYPE": 0, "CLASSIFICATION_TYPE": "U", "NORAD_CAT_ID": 66837, "ELEMENT_SET_NO": 999, "REV_AT_EPOCH": 453, "BSTAR": -5.7870357e-05, "MEAN_MOTION_DOT": -3.726e-05, "MEAN_MOTION_DDOT": 0}, "tle": {"line1": "1 66837U 25280S   25356.91670139 -.00003726  00000+0 -57870-4 0  9994", "line2": "2 66837  70.0002 170.5042 0003214 269.2875 111.7016 15.52516920  4534"}}, "geometry": {"type": "Point", "coordinates": [-31.93055374554974, 44.95177692672349]}}, {"type": "Feature", "properties": {"norad_id": 66838, "name": "STARLINK-35886", "group": "last-30-days", "lat": 41.56078418434247, "lon": -29.453544190075235, "alt_km": 407.0861839589061, "timestamp": "2025-12-23T07:45:08.116964+00:00", "meta": {"OBJECT_NAME": "STARLINK-35886", "OBJECT_ID": "2025-280T", "EPOCH": "2025-12-22T22:00:03.000096", "MEAN_MOTION": 15.52515453, "ECCENTRICITY": 0.0003152, "INCLINATION": 70.0002, "RA_OF_ASC_NODE": 170.4991, "ARG_OF_PERICENTER": 274.1319, "MEAN_ANOMALY": 110.6946, "EPHEMERIS_TYPE": 0, "CLASSIFICATION_TYPE": "U", "NORAD_CAT_ID": 66838, "ELEMENT_SET_NO": 999, "REV_AT_EPOCH": 453, "BSTAR": -4.9828485e-05, "MEAN_MOTION_DOT": -3.231e-05, "MEAN_MOTION_DDOT": 0}, "tle": {"line1": "1 66838U 25280T   25356.91670139 -.00003231  00000+0 -49828-4 0  9990", "line2": "2 66838  70.0002 170.4991 0003152 274.1319 110.6946 15.52515453  4536"}}, "geometry": {"type": "Point", "coordinates": [-29.453544190075235, 41.56078418434247]}}]}